{
  "type": "FeatureCollection",
  "features": [
    {
      "type": "Feature",
      "properties": {
        "norad_id": 66732,
        "name": "FLOCK 4H-29",
        "group": "last-30-days",
        "lat": -57.426609320513904,
        "lon": -123.80687445062121,
        "alt_km": 518.5926585806646,
        "timestamp": "2025-12-22T09:53:36.144076+00:00",
        "meta_object_name": "FLOCK 4H-29",
        "meta_object_id": "2025-276BU",
        "meta_epoch": "2025-12-22T02:30:57.717216",
        "meta_mean_motion": 15.17334827,
        "meta_eccentricity": 0.0003481,
        "meta_inclination": 97.4376,
        "meta_ra_of_asc_node": 67.6903,
        "meta_arg_of_pericenter": 229.8115,
        "meta_mean_anomaly": 130.2814,
        "meta_ephemeris_type": 0,
        "meta_classification_type": "U",
        "meta_norad_cat_id": 66732,
        "meta_element_set_no": 999,
        "meta_rev_at_epoch": 354,
        "meta_bstar": 0.0016976,
        "meta_mean_motion_dot": 0.00033934,
        "meta_mean_motion_ddot": 0,
        "tle_line1": "1 66732U 25276BU  25356.10483469  .00033934  00000+0  16976-2 0  9994",
        "tle_line2": "2 66732  97.4376  67.6903 0003481 229.8115 130.2814 15.17334827  3549"
      },
      "geometry": {
        "type": "Point",
        "coordinates": [
          -123.80687445062121,
          -57.426609320513904
        ]
      }
    },
    {
      "type": "Feature",
      "properties": {
        "norad_id": 66733,
        "name": "FLOCK 4H-30",
        "group": "last-30-days",
        "lat": -51.13637996550006,
        "lon": -121.32624811426246,
        "alt_km": 519.3889620069376,
        "timestamp": "2025-12-22T09:53:36.144085+00:00",
        "meta_object_name": "FLOCK 4H-30",
        "meta_object_id": "2025-276BV",
        "meta_epoch": "2025-12-22T04:00:01.998720",
        "meta_mean_motion": 15.17216162,
        "meta_eccentricity": 0.0003219,
        "meta_inclination": 97.4434,
        "meta_ra_of_asc_node": 67.7693,
        "meta_arg_of_pericenter": 269.5696,
        "meta_mean_anomaly": 61.8569,
        "meta_ephemeris_type": 0,
        "meta_classification_type": "U",
        "meta_norad_cat_id": 66733,
        "meta_element_set_no": 999,
        "meta_rev_at_epoch": 297,
        "meta_bstar": 0.0024622,
        "meta_mean_motion_dot": 0.00049182,
        "meta_mean_motion_ddot": 0,
        "tle_line1": "1 66733U 25276BV  25356.16668980  .00049182  00000+0  24622-2 0  9993",
        "tle_line2": "2 66733  97.4434  67.7693 0003219 269.5696  61.8569 15.17216162  2979"
      },
      "geometry": {
        "type": "Point",
        "coordinates": [
          -121.32624811426246,
          -51.13637996550006
        ]
      }
    },
    {
      "type": "Feature",
      "properties": {
        "norad_id": 66734,
        "name": "FLOCK 4H-31",
        "group": "last-30-days",
        "lat": -51.84807392782369,
        "lon": -121.58309688897572,
        "alt_km": 519.8164274805131,
        "timestamp": "2025-12-22T09:53:36.144096+00:00",
        "meta_object_name": "FLOCK 4H-31",
        "meta_object_id": "2025-276BW",
        "meta_epoch": "2025-12-22T02:32:24.857664",
        "meta_mean_motion": 15.17192297,
        "meta_eccentricity": 0.0004294,
        "meta_inclination": 97.4385,
        "meta_ra_of_asc_node": 67.6898,
        "meta_arg_of_pericenter": 293.1147,
        "meta_mean_anomaly": 66.9633,
        "meta_ephemeris_type": 0,
        "meta_classification_type": "U",
        "meta_norad_cat_id": 66734,
        "meta_element_set_no": 999,
        "meta_rev_at_epoch": 354,
        "meta_bstar": 0.00043745,
        "meta_mean_motion_dot": 8.63e-05,
        "meta_mean_motion_ddot": 0,
        "tle_line1": "1 66734U 25276BW  25356.10584326  .00008630  00000+0  43745-3 0  9990",
        "tle_line2": "2 66734  97.4385  67.6898 0004294 293.1147  66.9633 15.17192297  3543"
      },
      "geometry": {
        "type": "Point",
        "coordinates": [
          -121.58309688897572,
          -51.84807392782369
        ]
      }
    },
    {
      "type": "Feature",
      "properties": {
        "norad_id": 66735,
        "name": "FLOCK 4H-32",
        "group": "last-30-days",
        "lat": -49.59960283568439,
        "lon": -120.82999011832567,
        "alt_km": 519.127113037759,
        "timestamp": "2025-12-22T09:53:36.144105+00:00",
        "meta_object_name": "FLOCK 4H-32",
        "meta_object_id": "2025-276BX",
        "meta_epoch": "2025-12-22T02:33:02.097792",
        "meta_mean_motion": 15.1721546,
        "meta_eccentricity": 0.0003518,
        "meta_inclination": 97.4431,
        "meta_ra_of_asc_node": 67.7056,
        "meta_arg_of_pericenter": 263.5095,
        "meta_mean_anomaly": 96.5738,
        "meta_ephemeris_type": 0,
        "meta_classification_type": "U",
        "meta_norad_cat_id": 66735,
        "meta_element_set_no": 999,
        "meta_rev_at_epoch": 354,
        "meta_bstar": 0.00051703,
        "meta_mean_motion_dot": 0.00010221,
        "meta_mean_motion_ddot": 0,
        "tle_line1": "1 66735U 25276BX  25356.10627428  .00010221  00000+0  51703-3 0  9994",
        "tle_line2": "2 66735  97.4431  67.7056 0003518 263.5095  96.5738 15.17215460  3547"
      },
      "geometry": {
        "type": "Point",
        "coordinates": [
          -120.82999011832567,
          -49.59960283568439
        ]
      }
    },
    {
      "type": "Feature",
      "properties": {
        "norad_id": 66736,
        "name": "FLOCK 4H-33",
        "group": "last-30-days",
        "lat": -40.51257021706749,
        "lon": 74.45616850767594,
        "alt_km": 519.2728907012543,
        "timestamp": "2025-12-22T09:53:36.144115+00:00",
        "meta_object_name": "FLOCK 4H-33",
        "meta_object_id": "2025-276BY",
        "meta_epoch": "2025-12-22T02:09:52.816032",
        "meta_mean_motion": 15.18273812,
        "meta_eccentricity": 0.0002573,
        "meta_inclination": 97.4427,
        "meta_ra_of_asc_node": 67.726,
        "meta_arg_of_pericenter": 162.7594,
        "meta_mean_anomaly": 197.3728,
        "meta_ephemeris_type": 0,
        "meta_classification_type": "U",
        "meta_norad_cat_id": 66736,
        "meta_element_set_no": 999,
        "meta_rev_at_epoch": 354,
        "meta_bstar": 0.00062404,
        "meta_mean_motion_dot": 0.00012734,
        "meta_mean_motion_ddot": 0,
        "tle_line1": "1 66736U 25276BY  25356.09019463  .00012734  00000+0  62404-3 0  9998",
        "tle_line2": "2 66736  97.4427  67.7260 0002573 162.7594 197.3728 15.18273812  3549"
      },
      "geometry": {
        "type": "Point",
        "coordinates": [
          74.45616850767594,
          -40.51257021706749
        ]
      }
    },
    {
      "type": "Feature",
      "properties": {
        "norad_id": 66737,
        "name": "FLOCK 4H-34",
        "group": "last-30-days",
        "lat": -49.3000481510016,
        "lon": 76.78802621428099,
        "alt_km": 519.6405627754457,
        "timestamp": "2025-12-22T09:53:36.144124+00:00",
        "meta_object_name": "FLOCK 4H-34",
        "meta_object_id": "2025-276BZ",
        "meta_epoch": "2025-12-22T02:12:12.060864",
        "meta_mean_motion": 15.18142642,
        "meta_eccentricity": 0.0002339,
        "meta_inclination": 97.4442,
        "meta_ra_of_asc_node": 67.7291,
        "meta_arg_of_pericenter": 168.7176,
        "meta_mean_anomaly": 191.411,
        "meta_ephemeris_type": 0,
        "meta_classification_type": "U",
        "meta_norad_cat_id": 66737,
        "meta_element_set_no": 999,
        "meta_rev_at_epoch": 279,
        "meta_bstar": 0.00052467,
        "meta_mean_motion_dot": 0.00010652,
        "meta_mean_motion_ddot": 0,
        "tle_line1": "1 66737U 25276BZ  25356.09180626  .00010652  00000+0  52467-3 0  9994",
        "tle_line2": "2 66737  97.4442  67.7291 0002339 168.7176 191.4110 15.18142642  2795"
      },
      "geometry": {
        "type": "Point",
        "coordinates": [
          76.78802621428099,
          -49.3000481510016
        ]
      }
    },
    {
      "type": "Feature",
      "properties": {
        "norad_id": 66738,
        "name": "FLOCK 4H-35",
        "group": "last-30-days",
        "lat": -40.715382203405824,
        "lon": 74.49278059861321,
        "alt_km": 519.3318618533513,
        "timestamp": "2025-12-22T09:53:36.144134+00:00",
        "meta_object_name": "FLOCK 4H-35",
        "meta_object_id": "2025-276CA",
        "meta_epoch": "2025-12-22T02:09:55.235232",
        "meta_mean_motion": 15.18231333,
        "meta_eccentricity": 0.00023,
        "meta_inclination": 97.4406,
        "meta_ra_of_asc_node": 67.7183,
        "meta_arg_of_pericenter": 151.7865,
        "meta_mean_anomaly": 208.3494,
        "meta_ephemeris_type": 0,
        "meta_classification_type": "U",
        "meta_norad_cat_id": 66738,
        "meta_element_set_no": 999,
        "meta_rev_at_epoch": 283,
        "meta_bstar": 0.00043097,
        "meta_mean_motion_dot": 8.758e-05,
        "meta_mean_motion_ddot": 0,
        "tle_line1": "1 66738U 25276CA  25356.09022263  .00008758  00000+0  43097-3 0  9990",
        "tle_line2": "2 66738  97.4406  67.7183 0002300 151.7865 208.3494 15.18231333  2835"
      },
      "geometry": {
        "type": "Point",
        "coordinates": [
          74.49278059861321,
          -40.715382203405824
        ]
      }
    }
  ]
}